CCSDS_OMM_VERS = 2.0
CREATION_DATE  = 
ORIGINATOR     = 

OBJECT_NAME    = 1998-067XJ
OBJECT_ID      = 1998-067XJ
CENTER_NAME    = EARTH
REF_FRAME      = TEME
TIME_SYSTEM    = UTC
MEAN_ELEMENT_THEORY = SGP/SGP4

EPOCH          = 2025-11-08T06:38:09.696768
MEAN_MOTION    = 15.72034770
ECCENTRICITY   = .0011191
INCLINATION    = 51.6273
RA_OF_ASC_NODE = 309.1507
ARG_OF_PERICENTER = 76.3231
MEAN_ANOMALY   = 283.9012

EPHEMERIS_TYPE = 0
CLASSIFICATION_TYPE = U
NORAD_CAT_ID   = 65730
ELEMENT_SET_NO = 999
REV_AT_EPOCH   = 778
BSTAR          = .28522E-2
MEAN_MOTION_DOT = .400779E-2
MEAN_MOTION_DDOT = 0

CCSDS_OMM_VERS = 2.0
CREATION_DATE  = 
ORIGINATOR     = 

OBJECT_NAME    = 1998-067XK
OBJECT_ID      = 1998-067XK
CENTER_NAME    = EARTH
REF_FRAME      = TEME
TIME_SYSTEM    = UTC
MEAN_ELEMENT_THEORY = SGP/SGP4

EPOCH          = 2025-11-08T06:04:21.037728
MEAN_MOTION    = 15.58730144
ECCENTRICITY   = .000538
INCLINATION    = 51.6333
RA_OF_ASC_NODE = 311.2561
ARG_OF_PERICENTER = 69.8269
MEAN_ANOMALY   = 290.3302

EPHEMERIS_TYPE = 0
CLASSIFICATION_TYPE = U
NORAD_CAT_ID   = 65731
ELEMENT_SET_NO = 999
REV_AT_EPOCH   = 775
BSTAR          = .10694E-2
MEAN_MOTION_DOT = .84416E-3
MEAN_MOTION_DDOT = 0

CCSDS_OMM_VERS = 2.0
CREATION_DATE  = 
ORIGINATOR     = 

OBJECT_NAME    = RSP-03
OBJECT_ID      = 1998-067XL
CENTER_NAME    = EARTH
REF_FRAME      = TEME
TIME_SYSTEM    = UTC
MEAN_ELEMENT_THEORY = SGP/SGP4

EPOCH          = 2025-11-08T05:40:34.241088
MEAN_MOTION    = 15.59903348
ECCENTRICITY   = .000609
INCLINATION    = 51.6306
RA_OF_ASC_NODE = 311.1442
ARG_OF_PERICENTER = 72.0138
MEAN_ANOMALY   = 288.1518

EPHEMERIS_TYPE = 0
CLASSIFICATION_TYPE = U
NORAD_CAT_ID   = 65732
ELEMENT_SET_NO = 999
REV_AT_EPOCH   = 776
BSTAR          = .12558E-2
MEAN_MOTION_DOT = .104024E-2
MEAN_MOTION_DDOT = 0

CCSDS_OMM_VERS = 2.0
CREATION_DATE  = 
ORIGINATOR     = 

OBJECT_NAME    = GHS-01
OBJECT_ID      = 1998-067XM
CENTER_NAME    = EARTH
REF_FRAME      = TEME
TIME_SYSTEM    = UTC
MEAN_ELEMENT_THEORY = SGP/SGP4

EPOCH          = 2025-11-08T06:31:06.339360
MEAN_MOTION    = 15.62036448
ECCENTRICITY   = .0004664
INCLINATION    = 51.6316
RA_OF_ASC_NODE = 310.6297
ARG_OF_PERICENTER = 90.3345
MEAN_ANOMALY   = 269.8184

EPHEMERIS_TYPE = 0
CLASSIFICATION_TYPE = U
NORAD_CAT_ID   = 65733
ELEMENT_SET_NO = 999
REV_AT_EPOCH   = 777
BSTAR          = .15496E-2
MEAN_MOTION_DOT = .140094E-2
MEAN_MOTION_DDOT = 0

CCSDS_OMM_VERS = 2.0
CREATION_DATE  = 
ORIGINATOR     = 

OBJECT_NAME    = YOTSUBA-KULOVER
OBJECT_ID      = 1998-067XN
CENTER_NAME    = EARTH
REF_FRAME      = TEME
TIME_SYSTEM    = UTC
MEAN_ELEMENT_THEORY = SGP/SGP4

EPOCH          = 2025-11-07T06:37:37.380576
MEAN_MOTION    = 15.53953751
ECCENTRICITY   = .00026673
INCLINATION    = 51.6324
RA_OF_ASC_NODE = 317.4779
ARG_OF_PERICENTER = 18.7643
MEAN_ANOMALY   = 341.3445

EPHEMERIS_TYPE = 0
CLASSIFICATION_TYPE = U
NORAD_CAT_ID   = 65941
ELEMENT_SET_NO = 999
REV_AT_EPOCH   = 433
BSTAR          = .95169922E-3
MEAN_MOTION_DOT = .6262E-3
MEAN_MOTION_DDOT = 0

CCSDS_OMM_VERS = 2.0
CREATION_DATE  = 
ORIGINATOR     = 

OBJECT_NAME    = BOTAN
OBJECT_ID      = 1998-067XP
CENTER_NAME    = EARTH
REF_FRAME      = TEME
TIME_SYSTEM    = UTC
MEAN_ELEMENT_THEORY = SGP/SGP4

EPOCH          = 2025-11-07T06:23:55.790016
MEAN_MOTION    = 15.55038987
ECCENTRICITY   = .0004757
INCLINATION    = 51.6320
RA_OF_ASC_NODE = 317.4148
ARG_OF_PERICENTER = 34.2370
MEAN_ANOMALY   = 325.8927

EPHEMERIS_TYPE = 0
CLASSIFICATION_TYPE = U
NORAD_CAT_ID   = 65942
ELEMENT_SET_NO = 999
REV_AT_EPOCH   = 433
BSTAR          = .12069711E-2
MEAN_MOTION_DOT = .83017E-3
MEAN_MOTION_DDOT = 0

CCSDS_OMM_VERS = 2.0
CREATION_DATE  = 
ORIGINATOR     = 

OBJECT_NAME    = E-KAGAKU-1
OBJECT_ID      = 1998-067XQ
CENTER_NAME    = EARTH
REF_FRAME      = TEME
TIME_SYSTEM    = UTC
MEAN_ELEMENT_THEORY = SGP/SGP4

EPOCH          = 2025-11-07T06:36:59.145984
MEAN_MOTION    = 15.53952943
ECCENTRICITY   = .00045217
INCLINATION    = 51.6332
RA_OF_ASC_NODE = 317.4755
ARG_OF_PERICENTER = 22.2723
MEAN_ANOMALY   = 337.8463

EPHEMERIS_TYPE = 0
CLASSIFICATION_TYPE = U
NORAD_CAT_ID   = 65943
ELEMENT_SET_NO = 999
REV_AT_EPOCH   = 433
BSTAR          = .93570426E-3
MEAN_MOTION_DOT = .61564E-3
MEAN_MOTION_DDOT = 0

CCSDS_OMM_VERS = 2.0
CREATION_DATE  = 
ORIGINATOR     = 

OBJECT_NAME    = HRC MONOBLOCK CAMERA
OBJECT_ID      = 1998-067XR
CENTER_NAME    = EARTH
REF_FRAME      = TEME
TIME_SYSTEM    = UTC
MEAN_ELEMENT_THEORY = SGP/SGP4

EPOCH          = 2025-11-08T06:43:38.161056
MEAN_MOTION    = 15.51101507
ECCENTRICITY   = .0004692
INCLINATION    = 51.6323
RA_OF_ASC_NODE = 312.9319
ARG_OF_PERICENTER = 41.5358
MEAN_ANOMALY   = 318.5987

EPHEMERIS_TYPE = 0
CLASSIFICATION_TYPE = U
NORAD_CAT_ID   = 66052
ELEMENT_SET_NO = 999
REV_AT_EPOCH   = 348
BSTAR          = .67164E-3
MEAN_MOTION_DOT = .3961E-3
MEAN_MOTION_DDOT = 0

CCSDS_OMM_VERS = 2.0
CREATION_DATE  = 
ORIGINATOR     = 

OBJECT_NAME    = HTV-X1
OBJECT_ID      = 2025-241A
CENTER_NAME    = EARTH
REF_FRAME      = TEME
TIME_SYSTEM    = UTC
MEAN_ELEMENT_THEORY = SGP/SGP4

EPOCH          = 2025-11-07T04:40:57.562752
MEAN_MOTION    = 15.49813276
ECCENTRICITY   = .00051549
INCLINATION    = 51.6334
RA_OF_ASC_NODE = 318.4356
ARG_OF_PERICENTER = 25.9626
MEAN_ANOMALY   = 334.1621

EPHEMERIS_TYPE = 0
CLASSIFICATION_TYPE = U
NORAD_CAT_ID   = 66174
ELEMENT_SET_NO = 999
REV_AT_EPOCH   = 145
BSTAR          = .21019107E-3
MEAN_MOTION_DOT = .11482E-3
MEAN_MOTION_DDOT = 0

CCSDS_OMM_VERS = 2.0
CREATION_DATE  = 
ORIGINATOR     = 

OBJECT_NAME    = SHENZHOU-21 (SZ-21)
OBJECT_ID      = 2025-246A
CENTER_NAME    = EARTH
REF_FRAME      = TEME
TIME_SYSTEM    = UTC
MEAN_ELEMENT_THEORY = SGP/SGP4

EPOCH          = 2025-11-07T00:57:48.018240
MEAN_MOTION    = 15.60556280
ECCENTRICITY   = .00056991
INCLINATION    = 41.4666
RA_OF_ASC_NODE = 233.4859
ARG_OF_PERICENTER = 336.2635
MEAN_ANOMALY   = 23.7940

EPHEMERIS_TYPE = 0
CLASSIFICATION_TYPE = U
NORAD_CAT_ID   = 66263
ELEMENT_SET_NO = 999
REV_AT_EPOCH   = 25813
BSTAR          = .38997351E-3
MEAN_MOTION_DOT = .32955E-3
MEAN_MOTION_DDOT = 0

CCSDS_OMM_VERS = 2.0
CREATION_DATE  = 
ORIGINATOR     = 

OBJECT_NAME    = CZ-2F R/B
OBJECT_ID      = 2025-246B
CENTER_NAME    = EARTH
REF_FRAME      = TEME
TIME_SYSTEM    = UTC
MEAN_ELEMENT_THEORY = SGP/SGP4

EPOCH          = 2025-11-08T03:46:37.643232
MEAN_MOTION    = 16.17213841
ECCENTRICITY   = .007202
INCLINATION    = 41.4611
RA_OF_ASC_NODE = 223.4014
ARG_OF_PERICENTER = 184.7576
MEAN_ANOMALY   = 175.2605

EPHEMERIS_TYPE = 0
CLASSIFICATION_TYPE = U
NORAD_CAT_ID   = 66264
ELEMENT_SET_NO = 999
REV_AT_EPOCH   = 121
BSTAR          = .6003E-3
MEAN_MOTION_DOT = .1673304E-1
MEAN_MOTION_DDOT = .76554E-5

